SENTINEL-3B             
1 43437U 18039A   24217.94793169  .00000456  00000+0  20640-3 0  9995
2 43437  98.6259 284.1766 0001525  96.6486 263.4868 14.26738093326986
GAOFEN-5 01             
1 43461U 18043A   24218.09888841  .00001367  00000+0  29956-3 0  9997
2 43461  98.3582 168.8705 0002817  56.0301 304.1165 14.59257755332304
GAOFEN-6                
1 43484U 18048A   24218.16421324  .00002478  00000+0  36253-3 0  9996
2 43484  97.8615 291.2665 0009963 210.6629 149.4000 14.76511015332899
GAOFEN-11 01            
1 43585U 18063A   24218.17219152  .00017282  00000+0  56355-3 0  9994
2 43585  97.2288 282.8517 0006319 297.2144  62.8454 15.31846053335257
ICESAT-2                
1 43613U 18070A   24217.97845407  .00041061  00000+0  14850-2 0  9994
2 43613  91.9973 107.7794 0005544 203.4246 156.6751 15.28275861328426
HYSIS                   
1 43719U 18096A   24218.18155689  .00003463  00000+0  47887-3 0  9990
2 43719  97.8630 280.9882 0002002 140.7922 219.3434 14.78696313306783
KAZSTSAT                
1 43783U 18099AB  24218.18957832  .00002476  00000+0  22160-3 0  9994
2 43783  97.5231 267.3678 0007629 167.4903 192.6509 14.96705142309314
SAUDISAT 5A             
1 43831U 18102A   24218.21057393  .00009434  00000+0  48463-3 0  9995
2 43831  97.4049 282.6808 0012284  15.7872 344.3742 15.16635020312029
SAUDISAT 5B             
1 43833U 18102C   24218.16197803  .00011200  00000+0  56414-3 0  9991
2 43833  97.4101 284.5325 0013172  19.8665 340.3079 15.17272502312108
GAOFEN-10R              
1 44622U 19066A   24218.18227612  .00004051  00000+0  52059-3 0  9999
2 44622  97.9658 159.8834 0002657 118.3275 241.8206 14.81725343261470
CARTOSAT-3              
1 44804U 19081A   24218.18093283  .00010529  00000+0  50197-3 0  9991
2 44804  97.5291 275.8116 0011091  14.9123 345.2436 15.19234429260024
GAOFEN-12 01            
1 44819U 19082A   24218.16703264  .00001256  00000+0  16812-3 0  9996
2 44819  97.8236 231.1116 0002544  72.2323 287.9167 14.81147693253321
CSG-1                   
1 44873U 19092A   24218.00505395  .00001661  00000+0  21513-3 0  9999
2 44873  97.8883  40.4364 0001127  82.0741 278.0600 14.82172300250575
NUSAT-6 (HYPATIA)       
1 46272U 20061A   24218.16423887  .00278856  00000+0  17594-2 0  9999
2 46272  97.2243 294.0937 0003264 189.7197 170.4006 15.75843931219164
NEMO-HD                 
1 46277U 20061F   24218.22391888  .00011751  00000+0  44394-3 0  9994
2 46277  97.2940 279.8090 0001215  46.4355 313.6985 15.27144837217423
SENTINEL-6              
1 46984U 20086A   24217.95104381 -.00000034  00000+0  11790-3 0  9992
2 46984  66.0414 109.9899 0007814 269.9382  90.0738 12.80930216173075
GAOFEN-12 02            
1 48079U 21026A   24218.22384460  .00001307  00000+0  17487-3 0  9995
2 48079  97.9528 209.5108 0001674 104.4593 255.6805 14.81154858181005
PLEIADES NEO 3          
1 48268U 21034A   24218.18821198  .00003294  00000+0  42489-3 0  9990
2 48268  97.8953 291.7274 0001403  91.8834 268.2539 14.81682929176812
NUSAT-19 (ROSALIND)     
1 48905U 21059AC  24218.11513576  .00149862  00000+0  17616-2 0  9991
2 48905  97.5933  13.5265 0004582 200.6330 159.4742 15.60931921173458
PLEIADES NEO 4          
1 49070U 21073E   24217.88430144  .00004882  00000+0  62634-3 0  9996
2 49070  97.8958 291.4222 0001295  93.8361 266.3000 14.81687692160485
LANDSAT 9               
1 49260U 21088A   24218.20091965  .00001065  00000+0  24651-3 0  9991
2 49260  98.2294 287.1883 0001376  89.3251 270.8104 14.57111289151827
CSG-2                   
1 51444U 22008A   24218.17384481  .00001074  00000+0  14144-3 0  9991
2 51444  97.8880  40.5968 0001396  86.2451 273.8922 14.82146479135713
INS-2TD                 
1 51658U 22013C   24218.14239698  .00089909  00000+0  15005-2 0  9999
2 51658  97.5137 243.3803 0001908   6.0052 354.1223 15.51641312137575
GAOFEN-12 03            
1 52912U 22069A   24218.19710615  .00003983  00000+0  53019-3 0  9998
2 52912  97.9050 108.5749 0009557  16.8994 343.2535 14.80212450113869
SWOT                    
1 54754U 22173A   24217.88641886  .00000229  00000+0  15717-3 0  9991
2 54754  77.6079 234.9909 0000247 158.8700 201.2462 14.00167959 83809
GAOFEN-12 04            
1 57654U 23123A   24218.22978715  .00003702  00000+0  48065-3 0  9993
2 57654  97.9078 135.0368 0006156  48.3408 311.8331 14.81326033 51883
PARS 1                  
1 59065U 24039Q   24218.20835572  .00013273  00000+0  50414-3 0  9994
2 59065  97.3967 179.7041 0015389  43.4626 316.7823 15.26829504 24051
RESURS-P 4              
1 59371U 24061A   24218.14401276  .00008587  00000+0  26831-3 0  9990
2 59371  97.1885 169.8500 0001629  77.6284 282.5141 15.33400994 19423
ALOS-4 (DAICHI-4)       
1 60182U 24123A   24217.89284807  .00007628  00000+0  10267-2 0  9991
2 60182  97.9223 313.8570 0001531 104.1878 255.9504 14.79492704  5144
SARSAT 7 (NOAA 15)      
1 25338U 98030A   24218.19118464  .00000515  00000+0  23104-3 0  9995
2 25338  98.5670 244.2914 0010432 174.9157 185.2132 14.26648143364428
GPS BIIR-08             
1 27663U 03005A   24217.78046279  .00000032  00000+0  00000+0 0  9994
2 27663  55.0876 242.0609 0136607  47.4716 119.5400  2.00572098157648
GPS BIIR-11             
1 28190U 04009A   24217.34322303 -.00000058  00000+0  00000+0 0  9991
2 28190  55.4116 303.1170 0098695 150.7721 217.1547  2.00557992149278
GPS BIIR-13             
1 28474U 04045A   24217.76694955 -.00000113  00000+0  00000+0 0  9999
2 28474  55.4187 352.2673 0162299 293.5953  66.0793  2.00561795144768
SARSAT 10 (NOAA 18)     
1 28654U 05018A   24218.20045127  .00000458  00000+0  26761-3 0  9998
2 28654  98.8730 294.7565 0013108 285.0795  74.8926 14.13270924990185
GPS BIIR-14M            
1 28874U 05038A   24217.30805733 -.00000053  00000+0  00000+0 0  9997
2 28874  55.4573 300.5814 0136912 284.4650  81.2630  2.00552224138163
METEOSAT-9 (MSG-2)      
1 28912U 05049B   24217.91959197  .00000115  00000+0  00000+0 0  9991
2 28912   7.7957  60.4518 0000563 349.2048 281.0280  1.00275306   170
GOES 13                 
1 29155U 06018A   24217.53118866 -.00000063  00000+0  00000+0 0  9999
2 29155   2.7490  84.7314 0075045 255.9205 186.3258  0.99022267 36517
GPS BIIR-16M            
1 29601U 06052A   24217.36119051  .00000036  00000+0  00000+0 0  9990
2 29601  55.1195 241.0586 0084293  83.4928 277.5238  2.00570488129732
GPS BIIR-17M            
1 32260U 07047A   24217.66433661 -.00000027  00000+0  00000+0 0  9990
2 32260  53.6305 108.2412 0157297  76.3813 285.4224  2.00561628123142
GPS BIIR-18M            
1 32384U 07062A   24217.72327840 -.00000054  00000+0  00000+0 0  9992
2 32384  55.5974 301.4341 0029122 155.3201  17.6577  2.00577477121844
SARSAT 12 (NOAA 19)     
1 33591U 09005A   24218.15888553  .00000547  00000+0  31721-3 0  9997
2 33591  99.0441 274.4692 0014425 150.8061 209.3919 14.13065939798548
GOES 14                 
1 35491U 09033A   24218.24461228 -.00000075  00000+0  00000+0 0  9994
2 35491   0.4507  99.5798 0003496  27.4510 166.8425  1.00272594 55325
GOES 15                 
1 36411U 10008A   24218.18295569  .00000027  00000+0  00000+0 0  9993
2 36411   0.4855 274.5871 0005388 285.2377 241.7353  1.00281196 52809
GSAT0101 (GALILEO-PFM)  
1 37846U 11060A   24217.23657801 -.00000107  00000+0  00000+0 0  9991
2 37846  57.1296   0.2356 0002206  68.2819 291.7314  1.70475983 79490
GSAT0102 (GALILEO-FM2)  
1 37847U 11060B   24217.16751788 -.00000107  00000+0  00000+0 0  9993
2 37847  57.1301   0.2375 0001687   6.4947 356.7299  1.70475447 79508
LUCH 5A                 
1 37951U 11074B   24217.91769183 -.00000060  00000+0  00000+0 0  9993
2 37951   7.0073  84.2049 0004130  53.7152 313.2792  1.00272155 46361
METEOSAT-10 (MSG-3)     
1 38552U 12035B   24217.88453622 -.00000015  00000+0  00000+0 0  9993
2 38552   3.0727  61.2994 0000432 207.1170   4.0777  1.00276085 44026
SARSAT 13 (METOP-B)     
1 38771U 12049A   24218.16472851  .00000424  00000+0  21344-3 0  9999
2 38771  98.6249 274.2797 0000956  86.2065 273.9222 14.21463066616509
GPS BIIF-3              
1 38833U 12053A   24217.26322203 -.00000013  00000+0  00000+0 0  9995
2 38833  53.5195 171.5055 0154420  56.4757 304.9438  2.00559426 85769
GSAT0103 (GALILEO-FM3)  
1 38857U 12055A   24213.16984495 -.00000045  00000+0  00000+0 0  9990
2 38857  55.4237 120.3968 0003390 285.7010  74.2719  1.70473719 73319
GPS BIIF-4              
1 39166U 13023A   24218.12304968 -.00000047  00000+0  00000+0 0  9994
2 39166  55.0694 296.6097 0123742  45.0524 316.0115  2.00562703 82219
INSAT-3D                
1 39216U 13038B   24217.89054050 -.00000339  00000+0  00000+0 0  9997
2 39216   0.1568  94.7696 0001478 106.8246 197.6787  1.00555773 40249
GPS BIIF-5              
1 39533U 14008A   24217.62298062 -.00000006  00000+0  00000+0 0  9992
2 39533  53.6021 177.0951 0073393 221.2317 138.1701  2.00571323 76013
LUCH 5V                 
1 39727U 14023A   24217.91206913 -.00000279  00000+0  00000+0 0  9992
2 39727   3.4157  75.6925 0002495 114.0889 187.2008  1.00275158 37527
GPS BIIF-6              
1 39741U 14026A   24217.40315314 -.00000111  00000+0  00000+0 0  9996
2 39741  56.7077 358.0011 0031001 315.1518  44.5950  2.00564943 74860
GPS BIIF-7              
1 40105U 14045A   24216.49859539 -.00000036  00000+0  00000+0 0  9999
2 40105  54.9491 115.7179 0027347 114.7370 245.5856  2.00569695 72388
GSAT0201 (GALILEO 5)    
1 40128U 14050A   24217.05768195 -.00000072  00000+0  00000+0 0  9990
2 40128  49.6096 301.1396 1612621 153.1365 216.2501  1.85519576 65664
GSAT0202 (GALILEO 6)    
1 40129U 14050B   24214.08186294 -.00000077  00000+0  00000+0 0  9990
2 40129  49.6292 300.3368 1611663 153.8192 215.3475  1.85520122 67776
GPS BIIF-8              
1 40294U 14068A   24217.86876174 -.00000048  00000+0  00000+0 0  9992
2 40294  56.4630  57.3413 0055031  64.1456 296.4889  2.00563080 71545
